{
  "type": "Feature",
  "geometry": {
    "type": "Polygon",
    "coordinates": [
      [
        [
          -77.01605077862052,
          -12.155620092693084
        ],
        [
          -77.02630861135327,
          -12.157306604815915
        ],
        [
          -77.02912586896366,
          -12.165893380275236
        ],
        [
          -77.0376953612519,
          -12.168818355082976
        ],
        [
          -77.03954298601997,
          -12.18222460458179
        ],
        [
          -77.03770898598088,
          -12.204083980391317
        ],
        [
          -76.9759042357918,
          -12.230748104741167
        ],
        [
          -76.97700184755718,
          -12.217668266876956
        ],
        [
          -76.97287931033185,
          -12.195272864550986
        ],
        [
          -76.97704584239165,
          -12.194522209432364
        ],
        [
          -76.9862373606656,
          -12.167665854995164
        ],
        [
          -76.99820608434328,
          -12.166986893830028
        ],
        [
          -77.00238330664422,
          -12.174174333178883
        ],
        [
          -77.01378580097389,
          -12.166559405592068
        ],
        [
          -77.01605077862052,
          -12.155620092693084
        ]
      ]
    ]
  },
  "properties": {
    "CCDD": "15",
    "NOMBDEP": "LIMA",
    "CCPP": "01",
    "NOMBPROV": "LIMA",
    "CCDI": "08",
    "NOMBDIST": "CHORRILLOS",
    "CAPITAL": "CHORRILLOS",
    "UBIGEO": "150108",
    "IDPROV": "1501",
    "CODIGO": "150108",
    "CNT_CCPP": 1,
    "DESCRIPCIO": "CHORRILLOS"
  }
}
